start=new Date('2021-11-28T00:00:00.000Z').valueOf();
sats=[{"NORAD_CAT_ID":"47151","FILE":"3225675","RA_OF_ASC_NODE":"118.2027","SEMIMAJOR_AXIS":"6925.323","CLASSIFICATION_TYPE":"U","MEAN_ANOMALY":"272.1273","MEAN_MOTION":"15.06408345","DECAY_DATE":null,"COUNTRY_CODE":"US","ELEMENT_SET_NO":"999","ECCENTRICITY":"0.00016690","GP_ID":"190622146","LAUNCH_DATE":"2020-11-25","MEAN_MOTION_DDOT":"0.0000000000000","TIME_SYSTEM":"UTC","OBJECT_NAME":"STARLINK-1864","SITE":"AFETR","OBJECT_TYPE":"PAYLOAD","BSTAR":"0.00015887000000","OBJECT_ID":"2020-088AF","INCLINATION":"53.0548","CENTER_NAME":"EARTH","PERIAPSIS":"546.032","APOAPSIS":"548.344","REF_FRAME":"TEME","EPHEMERIS_TYPE":"0","TLE_LINE2":"2 47151  53.0548 118.2027 0001669  87.9907 272.1273 15.06408345 56256","PERIOD":"95.592","ARG_OF_PERICENTER":"87.9907","EPOCH":"2021-11-27T16:31:16.665312","RCS_SIZE":"LARGE","TLE_LINE1":"1 47151U 20088AF  21331.68838733  .00002086  00000-0  15887-3 0  9990","MEAN_ELEMENT_THEORY":"SGP4","REV_AT_EPOCH":"5625","MEAN_MOTION_DOT":"0.00002086"},{"RCS_SIZE":"LARGE","TLE_LINE1":"1 47152U 20088AG  21331.80633709  .00001765  00000-0  13732-3 0  9991","MEAN_ELEMENT_THEORY":"SGP4","REV_AT_EPOCH":"5627","MEAN_MOTION_DOT":"0.00001765","ARG_OF_PERICENTER":"89.8285","PERIOD":"95.592","EPOCH":"2021-11-27T19:21:07.524576","CENTER_NAME":"EARTH","PERIAPSIS":"546.106","APOAPSIS":"548.271","REF_FRAME":"TEME","EPHEMERIS_TYPE":"0","TLE_LINE2":"2 47152  53.0543 117.6840 0001563  89.8285 270.2883 15.06408144 56276","OBJECT_ID":"2020-088AG","INCLINATION":"53.0543","OBJECT_NAME":"STARLINK-1866","TIME_SYSTEM":"UTC","SITE":"AFETR","OBJECT_TYPE":"PAYLOAD","BSTAR":"0.00013732000000","ELEMENT_SET_NO":"999","ECCENTRICITY":"0.00015630","GP_ID":"190622882","LAUNCH_DATE":"2020-11-25","MEAN_MOTION_DDOT":"0.0000000000000","CLASSIFICATION_TYPE":"U","SEMIMAJOR_AXIS":"6925.324","MEAN_ANOMALY":"270.2883","MEAN_MOTION":"15.06408144","DECAY_DATE":null,"COUNTRY_CODE":"US","NORAD_CAT_ID":"47152","FILE":"3225675","RA_OF_ASC_NODE":"117.6840"},{"RA_OF_ASC_NODE":"122.4955","FILE":"3225675","NORAD_CAT_ID":"47153","COUNTRY_CODE":"US","DECAY_DATE":null,"MEAN_MOTION":"15.06413092","MEAN_ANOMALY":"267.8093","CLASSIFICATION_TYPE":"U","SEMIMAJOR_AXIS":"6925.308","MEAN_MOTION_DDOT":"0.0000000000000","GP_ID":"190623640","LAUNCH_DATE":"2020-11-25","ECCENTRICITY":"0.00019510","ELEMENT_SET_NO":"999","BSTAR":"-0.00025912000000","OBJECT_TYPE":"PAYLOAD","SITE":"AFETR","TIME_SYSTEM":"UTC","OBJECT_NAME":"STARLINK-1867","INCLINATION":"53.0536","OBJECT_ID":"2020-088AH","TLE_LINE2":"2 47153  53.0536 122.4955 0001951  92.3119 267.8093 15.06413092 56213","EPHEMERIS_TYPE":"0","REF_FRAME":"TEME","APOAPSIS":"548.525","PERIAPSIS":"545.822","CENTER_NAME":"EARTH","EPOCH":"2021-11-27T20:20:07.650528","PERIOD":"95.591","ARG_OF_PERICENTER":"92.3119","MEAN_MOTION_DOT":"-0.00004141","REV_AT_EPOCH":"5621","MEAN_ELEMENT_THEORY":"SGP4","TLE_LINE1":"1 47153U 20088AH  21331.84731077 -.00004141  00000-0 -25912-3 0  9999","RCS_SIZE":"LARGE"},{"EPOCH":"2021-11-27T18:39:58.778496","ARG_OF_PERICENTER":"88.6128","PERIOD":"95.592","RCS_SIZE":"LARGE","MEAN_ELEMENT_THEORY":"SGP4","TLE_LINE1":"1 47154U 20088AJ  21331.77776364  .00001248  00000-0  10266-3 0  9999","REV_AT_EPOCH":"5641","MEAN_MOTION_DOT":"0.00001248","OBJECT_ID":"2020-088AJ","INCLINATION":"53.0534","PERIAPSIS":"545.981","CENTER_NAME":"EARTH","APOAPSIS":"548.419","REF_FRAME":"TEME","TLE_LINE2":"2 47154  53.0534 107.8086 0001760  88.6128 271.5062 15.06404450 56418","EPHEMERIS_TYPE":"0","ELEMENT_SET_NO":"999","ECCENTRICITY":"0.00017600","MEAN_MOTION_DDOT":"0.0000000000000","GP_ID":"190622396","LAUNCH_DATE":"2020-11-25","TIME_SYSTEM":"UTC","OBJECT_NAME":"STARLINK-1868","SITE":"AFETR","BSTAR":"0.00010266000000","OBJECT_TYPE":"PAYLOAD","FILE":"3225675","RA_OF_ASC_NODE":"107.8086","NORAD_CAT_ID":"47154","CLASSIFICATION_TYPE":"U","SEMIMAJOR_AXIS":"6925.335","MEAN_MOTION":"15.06404450","MEAN_ANOMALY":"271.5062","DECAY_DATE":null,"COUNTRY_CODE":"US"},{"CLASSIFICATION_TYPE":"U","SEMIMAJOR_AXIS":"6925.323","MEAN_ANOMALY":"266.5929","MEAN_MOTION":"15.06408421","DECAY_DATE":null,"COUNTRY_CODE":"US","RA_OF_ASC_NODE":"127.6378","FILE":"3225675","NORAD_CAT_ID":"47155","TIME_SYSTEM":"UTC","OBJECT_NAME":"STARLINK-1869","SITE":"AFETR","OBJECT_TYPE":"PAYLOAD","BSTAR":"0.00011382000000","ELEMENT_SET_NO":"999","ECCENTRICITY":"0.00016230","GP_ID":"190622646","LAUNCH_DATE":"2020-11-25","MEAN_MOTION_DDOT":"0.0000000000000","CENTER_NAME":"EARTH","PERIAPSIS":"546.064","REF_FRAME":"TEME","APOAPSIS":"548.312","EPHEMERIS_TYPE":"0","TLE_LINE2":"2 47155  53.0528 127.6378 0001623  93.5245 266.5929 15.06408421 56136","OBJECT_ID":"2020-088AK","INCLINATION":"53.0528","RCS_SIZE":"LARGE","TLE_LINE1":"1 47155U 20088AK  21331.81278561  .00001415  00000-0  11382-3 0  9997","MEAN_ELEMENT_THEORY":"SGP4","REV_AT_EPOCH":"5613","MEAN_MOTION_DOT":"0.00001415","PERIOD":"95.592","ARG_OF_PERICENTER":"93.5245","EPOCH":"2021-11-27T19:30:24.676704"},{"TLE_LINE2":"2 47156  53.0560  43.5108 0003228  17.8734 342.2391 15.59529449 57278","EPHEMERIS_TYPE":"0","REF_FRAME":"TEME","APOAPSIS":"391.204","PERIAPSIS":"386.836","CENTER_NAME":"EARTH","INCLINATION":"53.0560","OBJECT_ID":"2020-088AL","MEAN_MOTION_DOT":"0.00017932","REV_AT_EPOCH":"5727","MEAN_ELEMENT_THEORY":"SGP4","TLE_LINE1":"1 47156U 20088AL  21331.19706820  .00017932  00000-0  22759-3 0  9994","RCS_SIZE":"LARGE","EPOCH":"2021-11-27T04:43:46.692480","PERIOD":"92.336","ARG_OF_PERICENTER":"17.8734","COUNTRY_CODE":"US","DECAY_DATE":null,"MEAN_MOTION":"15.59529449","MEAN_ANOMALY":"342.2391","CLASSIFICATION_TYPE":"U","SEMIMAJOR_AXIS":"6767.155","FILE":"3225405","NORAD_CAT_ID":"47156","RA_OF_ASC_NODE":"43.5108","BSTAR":"0.00022759000000","OBJECT_TYPE":"PAYLOAD","SITE":"AFETR","OBJECT_NAME":"STARLINK-1870","TIME_SYSTEM":"UTC","MEAN_MOTION_DDOT":"0.0000000000000","LAUNCH_DATE":"2020-11-25","GP_ID":"190593597","ECCENTRICITY":"0.00032280","ELEMENT_SET_NO":"999"},{"INCLINATION":"53.0528","OBJECT_ID":"2020-088AM","EPHEMERIS_TYPE":"0","TLE_LINE2":"2 47157  53.0528 117.4776 0001584  85.3923 274.7246 15.06408128 56288","APOAPSIS":"548.286","REF_FRAME":"TEME","CENTER_NAME":"EARTH","PERIAPSIS":"546.092","ARG_OF_PERICENTER":"85.3923","PERIOD":"95.592","EPOCH":"2021-11-27T20:24:48.986208","MEAN_MOTION_DOT":"0.00001021","REV_AT_EPOCH":"5628","TLE_LINE1":"1 47157U 20088AM  21331.85056697  .00001021  00000-0  87389-4 0  9991","MEAN_ELEMENT_THEORY":"SGP4","RCS_SIZE":"LARGE","RA_OF_ASC_NODE":"117.4776","FILE":"3225675","NORAD_CAT_ID":"47157","COUNTRY_CODE":"US","DECAY_DATE":null,"MEAN_ANOMALY":"274.7246","MEAN_MOTION":"15.06408128","SEMIMAJOR_AXIS":"6925.324","CLASSIFICATION_TYPE":"U","GP_ID":"190623141","LAUNCH_DATE":"2020-11-25","MEAN_MOTION_DDOT":"0.0000000000000","ECCENTRICITY":"0.00015840","ELEMENT_SET_NO":"999","OBJECT_TYPE":"PAYLOAD","BSTAR":"0.00008738900000","SITE":"AFETR","TIME_SYSTEM":"UTC","OBJECT_NAME":"STARLINK-1871"},{"RCS_SIZE":"LARGE","MEAN_ELEMENT_THEORY":"SGP4","TLE_LINE1":"1 47158U 20088AN  21331.67456038  .00001773  00000-0  13785-3 0  9997","REV_AT_EPOCH":"5639","MEAN_MOTION_DOT":"0.00001773","EPOCH":"2021-11-27T16:11:22.016832","ARG_OF_PERICENTER":"85.6413","PERIOD":"95.592","PERIAPSIS":"546.117","CENTER_NAME":"EARTH","APOAPSIS":"548.280","REF_FRAME":"TEME","TLE_LINE2":"2 47158  53.0545 108.2515 0001561  85.6413 274.4754 15.06404908 56394","EPHEMERIS_TYPE":"0","OBJECT_ID":"2020-088AN","INCLINATION":"53.0545","TIME_SYSTEM":"UTC","OBJECT_NAME":"STARLINK-1873","SITE":"AFETR","BSTAR":"0.00013785000000","OBJECT_TYPE":"PAYLOAD","ELEMENT_SET_NO":"999","ECCENTRICITY":"0.00015610","MEAN_MOTION_DDOT":"0.0000000000000","GP_ID":"190621897","LAUNCH_DATE":"2020-11-25","CLASSIFICATION_TYPE":"U","SEMIMAJOR_AXIS":"6925.334","MEAN_MOTION":"15.06404908","MEAN_ANOMALY":"274.4754","DECAY_DATE":null,"COUNTRY_CODE":"US","FILE":"3225675","NORAD_CAT_ID":"47158","RA_OF_ASC_NODE":"108.2515"},{"EPOCH":"2021-11-27T21:36:29.395008","ARG_OF_PERICENTER":"21.5599","PERIOD":"93.604","REV_AT_EPOCH":"5632","MEAN_MOTION_DOT":"0.00415415","RCS_SIZE":"LARGE","MEAN_ELEMENT_THEORY":"SGP4","TLE_LINE1":"1 47159U 20088AP  21331.90034022  .00415415  00000-0  10239-1 0  9990","INCLINATION":"53.0548","OBJECT_ID":"2020-088AP","TLE_LINE2":"2 47159  53.0548 114.7782 0000545  21.5599 338.5427 15.38396249 56326","EPHEMERIS_TYPE":"0","PERIAPSIS":"450.481","CENTER_NAME":"EARTH","APOAPSIS":"451.225","REF_FRAME":"TEME","MEAN_MOTION_DDOT":"0.0000000000000","LAUNCH_DATE":"2020-11-25","GP_ID":"190622147","ELEMENT_SET_NO":"999","ECCENTRICITY":"0.00005450","BSTAR":"0.01023900000000","OBJECT_TYPE":"PAYLOAD","TIME_SYSTEM":"UTC","OBJECT_NAME":"STARLINK-1874","SITE":"AFETR","FILE":"3225675","RA_OF_ASC_NODE":"114.7782","NORAD_CAT_ID":"47159","DECAY_DATE":null,"COUNTRY_CODE":"US","CLASSIFICATION_TYPE":"U","SEMIMAJOR_AXIS":"6828.988","MEAN_MOTION":"15.38396249","MEAN_ANOMALY":"338.5427"},{"ECCENTRICITY":"0.00081280","ELEMENT_SET_NO":"999","MEAN_MOTION_DDOT":"0.0160010000000","LAUNCH_DATE":"2020-11-25","GP_ID":"190600830","SITE":"AFETR","OBJECT_NAME":"STARLINK-1875","TIME_SYSTEM":"UTC","BSTAR":"0.00320180000000","OBJECT_TYPE":"PAYLOAD","FILE":"3225671","NORAD_CAT_ID":"47160","RA_OF_ASC_NODE":"62.6653","MEAN_MOTION":"16.12903537","MEAN_ANOMALY":"347.4766","CLASSIFICATION_TYPE":"U","SEMIMAJOR_AXIS":"6617.027","COUNTRY_CODE":"US","DECAY_DATE":null,"EPOCH":"2021-11-27T23:29:25.118880","ARG_OF_PERICENTER":"12.6360","PERIOD":"89.280","MEAN_ELEMENT_THEORY":"SGP4","TLE_LINE1":"1 47160U 20088AQ  21331.97876295  .03125365  16001-1  32018-2 0  9999","RCS_SIZE":"LARGE","MEAN_MOTION_DOT":"0.03125365","REV_AT_EPOCH":"5731","OBJECT_ID":"2020-088AQ","INCLINATION":"53.0466","APOAPSIS":"244.270","REF_FRAME":"TEME","PERIAPSIS":"233.514","CENTER_NAME":"EARTH","TLE_LINE2":"2 47160  53.0466  62.6653 0008128  12.6360 347.4766 16.12903537 57319","EPHEMERIS_TYPE":"0"}];
